{
    "links": {
        "self": "http://www.neowsapp.com/rest/v1/neo/3726808?api_key=iIulBulltgU6a56xZRHN4H3l9WmuAYTsLGpBGhQ2"
    },
    "id": "3726808",
    "neo_reference_id": "3726808",
    "name": "(2015 RQ2)",
    "designation": "2015 RQ2",
    "nasa_jpl_url": "http://ssd.jpl.nasa.gov/sbdb.cgi?sstr=3726808",
    "absolute_magnitude_h": 23.9,
    "estimated_diameter": {
        "kilometers": {
            "estimated_diameter_min": 0.04411182,
            "estimated_diameter_max": 0.0986370281
        },
        "meters": {
            "estimated_diameter_min": 44.1118199997,
            "estimated_diameter_max": 98.6370281305
        },
        "miles": {
            "estimated_diameter_min": 0.0274098057,
            "estimated_diameter_max": 0.0612901888
        },
        "feet": {
            "estimated_diameter_min": 144.7238235278,
            "estimated_diameter_max": 323.6123073718
        }
    },
    "is_potentially_hazardous_asteroid": false,
    "close_approach_data": [
        {
            "close_approach_date": "2015-08-28",
            "close_approach_date_full": "2015-Aug-28 05:06",
            "epoch_date_close_approach": 1440738360000,
            "relative_velocity": {
                "kilometers_per_second": "5.7163954439",
                "kilometers_per_hour": "20579.0235981396",
                "miles_per_hour": "12787.0049685218"
            },
            "miss_distance": {
                "astronomical": "0.1536783409",
                "lunar": "59.7808746101",
                "kilometers": "22989952.463773883",
                "miles": "14285294.0431022654"
            },
            "orbiting_body": "Earth"
        }
    ],
    "orbital_data": {
        "orbit_id": "7",
        "orbit_determination_date": "2020-09-11 07:35:40",
        "first_observation_date": "2015-09-06",
        "last_observation_date": "2015-09-28",
        "data_arc_in_days": 22,
        "observations_used": 19,
        "orbit_uncertainty": "8",
        "minimum_orbit_intersection": ".138415",
        "jupiter_tisserand_invariant": "3.287",
        "epoch_osculation": "2457273.5",
        "eccentricity": ".5315686767201999",
        "semi_major_axis": "2.447524816622323",
        "inclination": "2.52557650454672",
        "ascending_node_longitude": "8.161348886421958",
        "orbital_period": "1398.585698266044",
        "perihelion_distance": "1.146497288610545",
        "perihelion_argument": "321.4159486225121",
        "aphelion_distance": "3.748552344634101",
        "perihelion_time": "2457261.369590672552",
        "mean_anomaly": "3.122402412162077",
        "mean_motion": ".2574028895378561",
        "equinox": "J2000",
        "orbit_class": {
            "orbit_class_type": "AMO",
            "orbit_class_description": "Near-Earth asteroid orbits similar to that of 1221 Amor",
            "orbit_class_range": "1.017 AU < q (perihelion) < 1.3 AU"
        }
    },
    "is_sentry_object": false
}